#cP2016  7 28  0  0  0.00000000      96 ORBIT IGb08 HLM  IGS
## 1907 345600.00000000   900.00000000 57597 0.0000000000000
+   32   G01G02G03G04G05G06G07G08G09G10G11G12G13G14G15G16G17
+        G18G19G20G21G22G23G24G25G26G27G28G29G30G31G32  0  0
+          0  0  0  0  0  0  0  0  0  0  0  0  0  0  0  0  0
+          0  0  0  0  0  0  0  0  0  0  0  0  0  0  0  0  0
+          0  0  0  0  0  0  0  0  0  0  0  0  0  0  0  0  0
++         3  2  2  0  2  2  2  2  1  2  2  2  2  3  2  2  2
++         2  2  2  2  2  2  2  2  2  2  2  2  2  2  2  0  0
++         0  0  0  0  0  0  0  0  0  0  0  0  0  0  0  0  0
++         0  0  0  0  0  0  0  0  0  0  0  0  0  0  0  0  0
++         0  0  0  0  0  0  0  0  0  0  0  0  0  0  0  0  0
%c G  cc GPS ccc cccc cccc cccc cccc ccccc ccccc ccccc ccccc
%c cc cc ccc ccc cccc cccc cccc cccc ccccc ccccc ccccc ccccc
%f  1.2500000  1.025000000  0.00000000000  0.000000000000000
%f  0.0000000  0.000000000  0.00000000000  0.000000000000000
%i    0    0    0    0      0      0      0      0         0
%i    0    0    0    0      0      0      0      0         0
/* FINAL ORBIT COMBINATION FROM WEIGHTED AVERAGE OF:        
/* cod emr esa gfz grg jpl mit ngs sio                      
/* REFERENCED TO IGS TIME (IGST) AND TO WEIGHTED MEAN POLE: 
/* PCV:IGS08_1904 OL/AL:FES2004  NONE     Y  ORB:CMB CLK:CMB
*  2016  7 28 19 30  0.00000000
PG01  19733.455251   9838.007575  14890.380641     28.456285  7  5  6  77       
PG02 -13756.047865 -22609.926930   4451.539848    571.507442  9  9  4  86       
PG03  16695.575097  -2043.316232  20559.056000    -76.563063  7  4  3  98       
PG04  -6735.019114  24704.612871  -6746.731198 999999.999999
PG05  -7202.623932 -17392.616930 -18725.480242   -102.124107  6  5  4  92       
PG06  -2425.879967 -21476.434044  15445.693897    224.926295  6  9  8  94       
PG07  13873.582334  -6246.302830 -21648.257493    438.818001  4  2  3 116       
PG08  22279.964067   6512.329385 -12901.831782    -44.502308  3  5  1  98       
PG09  24911.504893  -7059.871789  -5966.343695    176.175309  5  4  5 110       
PG10 -10404.614436  24389.903737    463.974981    -73.847239  3  4  4  93       
PG11  23868.791275   9874.678594   5653.594001   -657.426662  4  5  4 112       
PG12 -15130.222564  -1543.913866  21608.871115    386.324715  3  5  5  91       
PG13 -14971.760297 -12522.487372 -18096.571853    -34.089052  7  8  5 109       
PG14  -2311.698873  15272.145856  21866.833642    -26.980229  9  5  6 114       
PG15 -23758.525923  -4661.872698 -11440.676414   -321.229195  7  8  3 109       
PG16   5402.767752  17086.687640 -19566.796779     -2.088013  7 11  9  94       
PG17  11221.290428 -14056.707558  19812.048125   -203.720851  5  6  4 103       
PG18 -15682.689458  18419.388648 -10131.124562    541.379254  7  9  6  98       
PG19   2075.267170 -14783.903645  21731.193677   -524.653077  6  8  5  94       
PG20 -16397.619157   -932.430625 -21029.319351    426.875983  2  6  4 110       
PG21 -12013.697596   9575.866829 -20913.283864   -529.360075  8 10  5  86       
PG22  14602.421966   6924.662041  21317.213044    285.586604  6  5  6 106       
PG23  26648.368605   -702.652705   2992.283928   -183.977918  5  6  4 112       
PG24 -20277.063785 -12603.936846  11787.322668    -20.829121  7  7  4 125       
PG25 -17211.565579  11851.802261  16152.219539   -216.863933  5  6  3  93       
PG26  -1330.313328  23735.616490 -11799.318036   -434.871246  7  7  5  98       
PG27  12181.818957  12485.211602 -20119.933946    120.051364  4  6  3 100       
PG28  12767.072877 -23244.931418   -252.321514    540.486394  5  7  5 102       
PG29 -25944.863150   3948.313750  -3978.616950    654.726026  5  6  4  97       
PG30   7479.825723 -15321.898845 -20338.659904    142.381705  4  4  4 105       
PG31   4776.984345  22654.082466  12783.845450    256.447564  5  9  5 109       
PG32 -10082.782541  14910.372098  19538.748063    -61.867719  2  4  6  86       
*  2016  7 28 19 45  0.00000000
PG01  20557.490157  11199.861690  12683.264457     28.457454  7  6  6  80       
PG02 -13167.509836 -22312.125925   7148.911953    571.503839  9 10  5  96       
PG03  15855.943475    201.017690  21311.002851    -76.565643  7  4  3  99       
PG04  -7154.603844  25164.118408  -3918.324351 999999.999999
PG05  -6292.848080 -19239.841734 -17158.358351   -102.121196  6  6  4  86       
PG06  -1146.589392 -20098.935215  17333.609497    224.931000  6  9  8  88       
PG07  15328.174031  -4241.886702 -21187.712828    438.815351  4  1  4 112       
PG08  20717.197429   6930.012132 -15090.657478    -44.504022  4  6  2  91       
PG09  25467.340556  -6871.984966  -3188.609342    176.181778  5  4  5 107       
PG10 -10608.245303  24186.456023  -2390.773292    -73.853307  3  4  4 104       
PG11  24133.405425  10528.478129   2990.508045   -657.427927  4  6  5 100       
PG12 -14087.966111  -3840.411936  22038.680538    386.325533  4  5  6  94       
PG13 -12842.391607 -12689.535608 -19573.596492    -34.091346  7  7  5  97       
PG14  -4728.449321  15373.286920  21381.498102    -26.981895 10  6  6 111       
PG15 -22421.956367  -5187.202688 -13683.013437   -321.230460  7  8  4 101       
PG16   4362.066007  18955.572346 -18002.356900     -2.085758  7 11  9  95       
PG17  13344.401772 -14143.305291  18339.316358   -203.720716  6  5  3 106       
PG18 -15516.050282  17006.042227 -12484.715387    541.383048  7  8  6  84       
PG19   4584.554251 -14870.764210  21318.863086   -524.652932  6  7  5  89       
PG20 -15720.435003  -3239.055330 -21314.485997    426.877793  2  6  4 107       
PG21 -13629.132349   7599.930975 -20759.795403   -529.360843  8  9  5  53       
PG22  13741.871826   9152.616009  21033.943603    285.578142  6  5  6 108       
PG23  26217.572289   -382.089105   5733.535835   -183.979263  5  6  4  97       
PG24 -20859.041531 -13693.544452   9328.167356    -20.829452  7  7  4 120       
PG25 -16594.938438   9967.269038  17971.019910   -216.870268  4  5  3 102       
PG26  -1987.662287  24775.102200  -9302.005652   -434.879677  7  7  4  85       
PG27   9871.849888  12883.590597 -21097.532848    120.055390  4  6  3 115       
PG28  12809.518405 -22928.254126  -3158.401578    540.488949  6  6  4 101       
PG29 -26251.311056   3765.095036  -1106.464930    654.725267  5  6  4 103       
PG30   8879.649578 -13398.609889 -21128.533503    142.383641  4  4  2 114       
PG31   3687.239738  21484.659667  15019.807367    256.445623  5  9  5 110       
PG32 -12232.425990  15088.922120  18119.851730    -61.878043  2  4  5 100       
*  2016  7 28 20  0  0.00000000
PG01  21281.232237  12316.613358  10259.448578     28.458630  7  7  6  71       
PG02 -12365.360236 -21830.597969   9727.547917    571.500124  9  9  6  96       
PG03  15113.135675   2546.758464  21696.384455    -76.568231  7  4  3 106       
PG04  -7438.451687  25339.198353  -1021.681814 999999.999999
PG05  -5535.049284 -20947.039778 -15295.181617   -102.118754  6  7  4  91       
PG06    333.721669 -18643.193069  18923.424925    224.935695  6  9  8 101       
PG07  16836.959344  -2376.813334 -20359.806406    438.813144  5  3  5 115       
PG08  18949.622462   7476.856508 -17019.511549    -44.505303  4  6  1 105       
PG09  25721.394748  -6648.600423   -356.058026    176.188233  5  5  4 114       
PG10 -10719.908855  23689.019371  -5204.176525    -73.859376  3  4  4  97       
PG11  24158.739591  11025.868752    275.542432   -657.429017  4  6  5  98       
PG12 -13167.245055  -6215.374509  22083.983201    386.326508  4  5  6 101       
PG13 -10578.962467 -12982.940342 -20716.389278    -34.093453  6  7  5 113       
PG14  -7064.688896  15593.849413  20536.241760    -26.983612 10  7  6 114       
PG15 -20881.901337  -5836.651901 -15695.458169   -321.231873  8  8  4 119       
PG16   3502.140152  20702.208720 -16126.152991     -2.084318  8 11  8 102       
PG17  15282.088507 -14318.544397  16556.936758   -203.720774  6  3  2 112       
PG18 -15339.804121  15337.681351 -14614.153961    541.386880  6  7  6  91       
PG19   7013.324907 -15085.101258  20532.752374   -524.652579  6  6  4 105       
PG20 -15149.626586  -5586.592209 -21237.884254    426.879923  1  6  4 113       
PG21 -15304.680109   5732.933211 -20224.292371   -529.361512  8  9  6  79       
PG22  13000.647260  11370.681370  20395.982827    285.569889  6  5  6 115       
PG23  25509.092697     18.097869   8379.158964   -183.980673  6  6  4 102       
PG24 -21301.785623 -14540.836398   6709.872010    -20.830805  8  7  4 121       
PG25 -16020.542242   7872.743356  19475.423496   -216.876549  4  5  3  98       
PG26  -2498.662705  25569.984067  -6644.204411   -434.888146  7  7  4  99       
PG27   7497.158087  13424.780074 -21714.481659    120.059409  4  6  3  99       
PG28  12745.127404 -22308.871012  -6009.394606    540.491321  6  5  4  78       
PG29 -26243.435245   3552.688036   1784.770304    654.724533  6  6  4 109       
PG30  10416.023461 -11494.780797 -21554.346948    142.385626  4  5    107       
PG31   2387.276873  20190.835699  16994.729813    256.443639  5  8  5 111       
PG32 -14195.604374  15342.830462  16389.275505    -61.888439  3  4  5  90       
EOF
